STARLINK-30298          
1 57665U 23124C   25127.48975420 -.00000552  00000+0 -65273-5 0  9998
2 57665  53.1598 189.3403 0001194  93.1015 267.0123 15.30188640 96680
STARLINK-30301          
1 57666U 23124D   25128.04527258  .00000294  00000+0  39886-4 0  9995
2 57666  53.1597 238.7423 0001411  70.8895 289.2248 15.04924942 96016
STARLINK-30275          
1 57667U 23124E   25127.44339890 -.00000380  00000+0 -71527-6 0  9990
2 57667  53.1589 189.5588 0001239  65.8304 294.2826 15.30196796 96677
STARLINK-30278          
1 57668U 23124F   25127.43812786 -.00002780  00000+0 -81755-4 0  9998
2 57668  53.1592 189.5558 0001206  68.4696 291.6433 15.30210922 96679
STARLINK-30271          
1 57669U 23124G   25127.45182338 -.00000417  00000+0 -19605-5 0  9995
2 57669  53.1596 189.5001 0001170  76.4788 283.6343 15.30198937 96670
STARLINK-30322          
1 57670U 23124H   25128.16080277  .00002474  00000+0  95650-4 0  9991
2 57670  53.1594 186.2224 0001366  86.0135 274.1022 15.30193227 96419
STARLINK-30296          
1 57671U 23124J   25127.49079949 -.00001846  00000+0 -50212-4 0  9990
2 57671  53.1595 189.2835 0001153  91.8645 268.2488 15.30193440 96682
STARLINK-30274          
1 57672U 23124K   25127.86685670 -.00002553  00000+0 -74064-4 0  9993
2 57672  53.1608 187.4703 0001329  84.6981 275.4172 15.30211024 96599
STARLINK-30316          
1 57673U 23124L   25127.43076228 -.00000088  00000+0  91717-5 0  9995
2 57673  53.1592 189.6240 0001308 100.9030 259.2118 15.30198321 96679
STARLINK-30317          
1 57675U 23124N   25127.43171709 -.00000547  00000+0 -63262-5 0  9992
2 57675  53.1596 189.0158 0001345  92.7024 267.4131 15.30194272 96687
STARLINK-30313          
1 57676U 23124P   25127.87003823 -.00000418  00000+0 -20054-5 0  9991
2 57676  53.1596 187.4938 0001043  90.3223 269.7897 15.30191212 96748
STARLINK-30303          
1 57677U 23124Q   25127.43487625  .00000587  00000+0  31944-4 0  9994
2 57677  53.1592 189.0072 0001217  82.0818 278.0321 15.30188922 96685
STARLINK-30320          
1 57678U 23124R   25128.16136239  .00000193  00000+0  14812-4 0  9996
2 57678  53.1620 175.1124 0001294  98.2719 261.8433 15.39613460 96948
STARLINK-30321          
1 57679U 23124S   25127.44542966  .00009150  00000+0  32067-3 0  9998
2 57679  53.1573 189.0708 0001053  64.5493 295.5616 15.30200629 96684
STARLINK-30283          
1 57680U 23124T   25127.48447490 -.00000783  00000+0 -14327-4 0  9995
2 57680  53.1610 189.2920 0001445  65.2916 294.8235 15.30190898 96684
STARLINK-30273          
1 57681U 23124U   25127.44866032 -.00002191  00000+0 -61853-4 0  9990
2 57681  53.1599 189.4969 0001220  91.0920 269.0221 15.30207989 96677
STARLINK-30297          
1 57682U 23124V   25127.48131494 -.00000568  00000+0 -70717-5 0  9998
2 57682  53.1601 189.3317 0001100 103.9827 256.1296 15.30196459 96683
STARLINK-30295          
1 57683U 23124W   25128.14710315 -.00002855  00000+0 -84241-4 0  9995
2 57683  53.1590 186.2913 0001303  69.8027 290.3114 15.30217268 96777
CAPELLA-11 (ACADIA-1)   
1 57693U 23126A   25127.51536456  .00004656  00000+0  65419-3 0  9994
2 57693  53.0066 133.6436 0001905   3.7236 356.3755 14.78966306 92065
JILIN-1 KUANFU 02A      
1 57696U 23127A   25128.20466790  .00006505  00000+0  40611-3 0  9990
2 57696  97.5619 222.1865 0015376 271.3680  88.5788 15.09733091 94158
STARLINK-30288          
1 57698U 23129A   25127.93381329  .00000281  00000+0  35900-4 0  9998
2 57698  43.0053 341.4369 0001364 270.1618  89.9068 15.02534761 94660
STARLINK-30347          
1 57699U 23129B   25127.91756347  .00000976  00000+0  87332-4 0  9990
2 57699  43.0038 329.3881 0000967 287.6076  72.4661 15.02538736 94805
STARLINK-30332          
1 57700U 23129C   25127.93048117  .00000239  00000+0  32772-4 0  9994
2 57700  43.0043 341.4120 0001323 266.7838  93.2853 15.02534718 94525
STARLINK-30345          
1 57701U 23129D   25127.91728010  .00000614  00000+0  60509-4 0  9996
2 57701  43.0030 342.1752 0000789 270.2852  89.7900 15.02536066 94512
STARLINK-30333          
1 57702U 23129E   25127.97709647 -.00000316  00000+0 -83296-5 0  9998
2 57702  43.0041 341.7619 0001199 271.2653  88.8052 15.02534770 94662
STARLINK-30336          
1 57703U 23129F   25127.98043037  .00000758  00000+0  71156-4 0  9993
2 57703  43.0048 341.7895 0001288 262.3210  97.7486 15.02534556 94364
STARLINK-30346          
1 57704U 23129G   25127.90396146  .00000052  00000+0  18951-4 0  9999
2 57704  43.0048 342.0728 0001278 269.2729  90.7967 15.02535492 94518
STARLINK-30342          
1 57705U 23129H   25127.99361883  .00001695  00000+0  14054-3 0  9992
2 57705  43.0042 341.0277 0001539 259.8456 100.2213 15.02539157 94673
STARLINK-30327          
1 57707U 23129K   25127.83778028  .00000142  00000+0  25563-4 0  9994
2 57707  43.0037 329.7273 0001559 256.8989 103.1679 15.02535643 94650
STARLINK-30315          
1 57708U 23129L   25127.96044970  .00000492  00000+0  51466-4 0  9990
2 57708  43.0044 341.6382 0001215 270.2767  89.7936 15.02532251 94664
STARLINK-30287          
1 57709U 23129M   25127.90063243  .00000309  00000+0  37917-4 0  9991
2 57709  43.0038 342.0524 0001129 271.4111  88.6602 15.02533466 94657
STARLINK-30335          
1 57710U 23129N   25127.89730198 -.00001099  00000+0 -66327-4 0  9997
2 57710  43.0022 342.0252 0001308 277.4153  82.6540 15.02536305 94651
STARLINK-30318          
1 57711U 23129P   25126.97660245 -.00000635  00000+0 -31904-4 0  9999
2 57711  43.0060 347.1422 0001229 264.2544  95.8158 15.02534415 94379
STARLINK-30348          
1 57712U 23129Q   25127.88731257 -.00001109  00000+0 -67026-4 0  9994
2 57712  43.0073 341.9500 0002821 279.8466  80.2058 15.02534393 94650
STARLINK-30349          
1 57713U 23129R   25128.01362370  .00018249  00000+0  13657-2 0  9997
2 57713  43.0036 341.1767 0000695 285.2889  74.7877 15.02446491 94371
STARLINK-30341          
1 57714U 23129S   25127.85734285  .00000386  00000+0  43631-4 0  9997
2 57714  43.0030 341.7232 0001417 271.2357  88.8323 15.02537235 94657
STARLINK-30300          
1 57715U 23129T   25128.02359982  .00000074  00000+0  20579-4 0  9995
2 57715  43.0051 341.2501 0001297 276.9869  83.0826 15.02533461 94675
STARLINK-30281          
1 57716U 23129U   25127.87065914  .00001109  00000+0  97120-4 0  9993
2 57716  43.0051 341.8207 0001381 264.9571  95.1113 15.02537451 94357
STARLINK-30325          
1 57717U 23129V   25127.88397938  .00000701  00000+0  66935-4 0  9996
2 57717  43.0050 341.9220 0001439 261.0162  99.0517 15.02533897 94655
STARLINK-30338          
1 57718U 23129W   25127.87399503 -.00001830  00000+0 -12039-3 0  9997
2 57718  43.0046 341.8510 0001429 268.4427  91.6252 15.02544325 94647
STARLINK-30334          
1 57719U 23129X   25127.87732683 -.00000433  00000+0 -16967-4 0  9991
2 57719  43.0050 341.8754 0001266 271.7734  88.2964 15.02531872 94511
YAOGAN-39 01A           
1 57727U 23130A   25128.22907762  .00009782  00000+0  40567-3 0  9990
2 57727  34.9998 155.4184 0003084  90.7686 269.3382 15.23112907 93939
YAOGAN-39 01B           
1 57728U 23130B   25128.16685620  .00005300  00000+0  26894-3 0  9999
2 57728  34.9938 156.6771 0013683   9.6416 350.4557 15.16229498 93937
YAOGAN-39 01C           
1 57731U 23130E   25128.22960366  .00005010  00000+0  25435-3 0  9991
2 57731  34.9931 156.2459 0002353 318.9824  41.0711 15.16303871 93926
STARLINK-30375          
1 57732U 23131A   25128.10923805  .00000902  00000+0  81830-4 0  9994
2 57732  43.0049  19.7341 0001250 264.1543  95.9157 15.02531238 93990
STARLINK-30310          
1 57733U 23131B   25127.12609265  .00000466  00000+0  49574-4 0  9991
2 57733  43.0052  37.1708 0001180 268.3718  91.6989 15.02538489 93821
STARLINK-30365          
1 57734U 23131C   25127.16271785 -.00000100  00000+0  76464-5 0  9993
2 57734  43.0063  37.4118 0001176 260.7205  99.3505 15.02534520 93814
STARLINK-30371          
1 57735U 23131D   25128.13658452  .00004415  00000+0  34165-3 0  9994
2 57735  43.0011  31.8560 0001473 312.5015  47.5702 15.02543750 93855
STARLINK-30352          
1 57736U 23131E   25128.12658894 -.00000344  00000+0 -10398-4 0  9996
2 57736  43.0017  31.7805 0000572 200.7683 159.3136 15.02540278 93856
STARLINK-30344          
1 57737U 23131F   25127.15161936  .00001415  00000+0  11982-3 0  9992
2 57737  43.0051  37.3733 0001810 274.3019  85.7617 15.02529964 93814
STARLINK-30351          
1 57738U 23131G   25127.10624364 -.00000687  00000+0 -35761-4 0  9991
2 57738  43.0035  37.8832 0001115  52.4217 307.6727 15.02534503 93807
STARLINK-30242          
1 57739U 23131H   25128.05079389  .00000505  00000+0  52429-4 0  9995
2 57739  43.0091   7.1794 0000750 289.3765  70.6997 15.02535406 94136
STARLINK-30331          
1 57740U 23131J   25127.07651757 -.00000587  00000+0 -12599-4 0  9999
2 57740  43.0015  30.8721 0001521 267.3979  92.6698 15.25915714 93889
STARLINK-30364          
1 57741U 23131K   25128.08674649  .00001038  00000+0  91868-4 0  9993
2 57741  43.0047  32.3420 0001134 265.7287  94.3426 15.02541882 93831
STARLINK-30308          
1 57742U 23131L   25128.10007314  .00000918  00000+0  83048-4 0  9993
2 57742  43.0048  32.4431 0001280 260.2036  99.8662 15.02531059 93859
STARLINK-30361          
1 57743U 23131M   25128.08341642  .00001694  00000+0  14045-3 0  9998
2 57743  43.0034  32.3196 0001076 275.2375  84.8344 15.02537221 93844
STARLINK-30363          
1 57744U 23131N   25127.97295696  .00000195  00000+0  29485-4 0  9993
2 57744  43.0047  20.4332 0001164 259.1057 100.9655 15.02534764 94086
STARLINK-30362          
1 57745U 23131P   25128.01361444  .00000274  00000+0  35338-4 0  9997
2 57745  43.0051  32.6520 0001089 268.0328  92.0390 15.02537838 93724
STARLINK-30350          
1 57746U 23131Q   25128.11005241  .00000088  00000+0  21581-4 0  9997
2 57746  43.0043  32.4988 0001115 272.9687  87.1028 15.02544140 93945
